[{"OBJECT_NAME":"ION SCV-020","OBJECT_ID":"2025-135T","EPOCH":"2026-03-09T21:47:53.616480","MEAN_MOTION":15.20454047,"ECCENTRICITY":0.00028998,"INCLINATION":97.458,"RA_OF_ASC_NODE":184.8922,"ARG_OF_PERICENTER":140.0276,"MEAN_ANOMALY":220.1173,"EPHEMERIS_TYPE":0,"CLASSIFICATION_TYPE":"U","NORAD_CAT_ID":64545,"ELEMENT_SET_NO":999,"REV_AT_EPOCH":3976,"BSTAR":0.00023326396,"MEAN_MOTION_DOT":5.022e-5,"MEAN_MOTION_DDOT":0},{"OBJECT_NAME":"OBJECT D","OBJECT_ID":"2024-110D","EPOCH":"2026-03-09T23:35:59.225568","MEAN_MOTION":15.22946484,"ECCENTRICITY":0.00091951,"INCLINATION":97.5701,"RA_OF_ASC_NODE":165.3055,"ARG_OF_PERICENTER":232.8206,"MEAN_ANOMALY":127.2191,"EPHEMERIS_TYPE":0,"CLASSIFICATION_TYPE":"U","NORAD_CAT_ID":60015,"ELEMENT_SET_NO":999,"REV_AT_EPOCH":9715,"BSTAR":0.00037001945,"MEAN_MOTION_DOT":8.627e-5,"MEAN_MOTION_DDOT":0}]
